UMBRA-10                
1 60547U 24149CH  26199.96053369  .00008016  00000+0  38729-3 0  9996
2 60547  97.6969 287.7610 0001922 159.4521 200.6791 15.18914766105551
ICEYE-X33               
1 60548U 24149CJ  26199.76993529  .00002430  00000+0  19563-3 0  9995
2 60548  97.7374 278.7543 0001862  70.9954 289.1471 15.00902716104940
ICEYE-X40               
1 60549U 24149CK  26199.76390572  .00001521  00000+0  13347-3 0  9999
2 60549  97.6808 275.7523 0003858 354.6802   5.4379 14.98088793104805
SATELIOT_1              
1 60550U 24149CL  26199.75257766  .00001250  00000+0  11032-3 0  9995
2 60550  97.6734 275.1249 0005259 342.4307  17.6733 14.98171451104797
BRO-14                  
1 60551U 24149CM  26199.76124974  .00000975  00000+0  91469-4 0  9997
2 60551  97.6864 274.9711 0006459   7.5653 352.5665 14.96242761104717
SATELIOT_3              
1 60552U 24149CN  26199.72849468  .00000421  00000+0  40406-4 0  9997
2 60552  97.6811 275.9236 0004701 349.7723  10.3403 14.98166936104800
BRO-15                  
1 60553U 24149CP  26199.94460441  .00000548  00000+0  53626-4 0  9990
2 60553  97.6789 274.7233 0007314 352.3483   7.7625 14.96224703104750
UM5-RIBAT               
1 60554U 24149CQ  26199.80080874  .00001057  00000+0  86955-4 0  9991
2 60554  97.6599 277.1717 0000416 301.9053  58.2131 15.01226677104935
UM5-EOSAT               
1 60555U 24149CR  26199.95679822  .00001678  00000+0  13347-3 0  9998
2 60555  97.6778 278.3388 0008976  25.8701 334.2971 15.01742432104989
LASARSAT                
1 62391U 24247Q   26199.93291523  .00020905  00000+0  39367-3 0  9997
2 62391  44.9739  83.5637 0007976 189.9528 170.1206 15.48202624 88234
CROCUBE                 
1 62394U 24247T   26199.69575181  .00023011  00000+0  40086-3 0  9999
2 62394  44.9712  81.6809 0008147 194.4286 165.6374 15.50367216 88238
TEVEL2-4                
1 63213U 25052D   26199.66508883  .00010338  00000+0  30055-3 0  9990
2 63213  97.3855  96.1261 0003268  45.1827 314.9681 15.35641020 74948
TEVEL2-5                
1 63214U 25052E   26199.94996264  .00009662  00000+0  28271-3 0  9991
2 63214  97.3855  96.3502 0003229  45.9598 314.1911 15.35457438 74989
TEVEL2-6                
1 63215U 25052F   26199.96302376  .00010045  00000+0  29413-3 0  9995
2 63215  97.3857  96.3480 0003335  48.3774 311.7755 15.35422134 74982
TEVEL2-1                
1 63217U 25052H   26199.22116709  .00009517  00000+0  28401-3 0  9997
2 63217  97.3830  95.1910 0004044  53.7107 306.4510 15.34835684 74851
TEVEL2-3                
1 63218U 25052J   26199.27979625  .00009943  00000+0  29602-3 0  9994
2 63218  97.3839  95.2758 0003778  55.7421 304.4179 15.34900151 74868
TEVEL2-2                
1 63219U 25052K   26199.28646794  .00009641  00000+0  28757-3 0  9999
2 63219  97.3833  95.2592 0004077  53.6322 306.5297 15.34848337 74860
TEVEL2-9                
1 63237U 25052AD  26199.95770189  .00009012  00000+0  28669-3 0  9993
2 63237  97.3893  95.2358 0007341  46.1700 314.0148 15.32802414 74896
TEVEL2-7                
1 63238U 25052AE  26199.67848182  .00008389  00000+0  26975-3 0  9996
2 63238  97.3894  94.8589 0007495  47.1803 313.0068 15.32478825 74844
TEVEL2-8                
1 63239U 25052AF  26199.68703718  .00008343  00000+0  26842-3 0  9996
2 63239  97.3898  94.8441 0007518  48.0936 312.0946 15.32464515 74844
FORESAIL-1 PRIME        
1 66778U 25276DS  26199.75159349  .00002320  00000+0  11424-3 0  9997
2 66778  97.4186 272.4479 0002580  37.1807 322.9605 15.18955093 35198
